$$SOE
2461295.500000000, A.D. 2026-Sep-12 00:00:00.0000, -3.440712880201347E+08, -1.935851844206279E+08, -1.415087661029635E+07,
2461302.500000000, A.D. 2026-Sep-19 00:00:00.0000, -3.371102747397152E+08, -2.016851860186350E+08, -1.443831064684354E+07,
2461309.500000000, A.D. 2026-Sep-26 00:00:00.0000, -3.298798668652313E+08, -2.096239848180085E+08, -1.471420428129472E+07,
2461316.500000000, A.D. 2026-Oct-03 00:00:00.0000, -3.223818304603704E+08, -2.173926884778664E+08, -1.497815792042366E+07,
2461323.500000000, A.D. 2026-Oct-10 00:00:00.0000, -3.146181843120674E+08, -2.249822551340076E+08, -1.522976846554670E+07,
2461330.500000000, A.D. 2026-Oct-17 00:00:00.0000, -3.065912149483932E+08, -2.323834945037068E+08, -1.546862957672293E+07,
2461337.500000000, A.D. 2026-Oct-24 00:00:00.0000, -2.983034924038472E+08, -2.395870698338761E+08, -1.569433199085455E+07,
2461344.500000000, A.D. 2026-Oct-31 00:00:00.0000, -2.897578866387064E+08, -2.465835008453430E+08, -1.590646391220412E+07,
2461351.500000000, A.D. 2026-Nov-07 00:00:00.0000, -2.809575842735282E+08, -2.533631676922551E+08, -1.610461150460978E+07,
2461358.500000000, A.D. 2026-Nov-14 00:00:00.0000, -2.719061054317968E+08, -2.599163151491141E+08, -1.628835943571231E+07,
2461365.500000000, A.D. 2026-Nov-21 00:00:00.0000, -2.626073224881926E+08, -2.662330564502494E+08, -1.645729125588915E+07,
2461372.500000000, A.D. 2026-Nov-28 00:00:00.0000, -2.530654816973939E+08, -2.723033799049395E+08, -1.661098977118543E+07,
2461379.500000000, A.D. 2026-Dec-05 00:00:00.0000, -2.432852240531131E+08, -2.781171590691119E+08, -1.674903780130292E+07,
2461386.500000000, A.D. 2026-Dec-12 00:00:00.0000, -2.332716051719350E+08, -2.836641634933338E+08, -1.687101908892371E+07,
2461393.500000000, A.D. 2026-Dec-19 00:00:00.0000, -2.230301160345464E+08, -2.889340701756805E+08, -1.697651919194852E+07,
2461400.500000000, A.D. 2026-Dec-26 00:00:00.0000, -2.125667046558024E+08, -2.939164767278948E+08, -1.706512642178987E+07,
2461407.500000000, A.D. 2027-Jan-02 00:00:00.0000, -2.018877983195548E+08, -2.986009165926419E+08, -1.713643287419255E+07,
2461414.500000000, A.D. 2027-Jan-09 00:00:00.0000, -1.910003261556008E+08, -3.029768764450929E+08, -1.719003556754787E+07,
2461421.500000000, A.D. 2027-Jan-16 00:00:00.0000, -1.799117418993902E+08, -3.070338159274217E+08, -1.722553769705075E+07,
2461428.500000000, A.D. 2027-Jan-23 00:00:00.0000, -1.686300466430133E+08, -3.107611899139699E+08, -1.724255001760384E+07,
2461435.500000000, A.D. 2027-Jan-30 00:00:00.0000, -1.571638112193969E+08, -3.141484735116932E+08, -1.724069238161266E+07,
2461442.500000000, A.D. 2027-Feb-06 00:00:00.0000, -1.455221975976150E+08, -3.171851896096091E+08, -1.721959544741823E+07,
2461449.500000000, A.D. 2027-Feb-13 00:00:00.0000, -1.337149795235028E+08, -3.198609379049716E+08, -1.717890242041709E+07,
2461456.500000000, A.D. 2027-Feb-20 00:00:00.0000, -1.217525645121203E+08, -3.221654263340964E+08, -1.711827067785752E+07,
2461463.500000000, A.D. 2027-Feb-27 00:00:00.0000, -1.096460155066350E+08, -3.240885082460331E+08, -1.703737367029849E+07,
2461470.500000000, A.D. 2027-Mar-06 00:00:00.0000, -9.740706886582613E+07, -3.256202235043899E+08, -1.693590322031130E+07,
2461477.500000000, A.D. 2027-Mar-13 00:00:00.0000, -8.504814992915070E+07, -3.267508415476524E+08, -1.681357190256216E+07,
2461484.500000000, A.D. 2027-Mar-20 00:00:00.0000, -7.258238690146267E+07, -3.274709072855064E+08, -1.667011546550354E+07,
2461491.500000000, A.D. 2027-Mar-27 00:00:00.0000, -6.002362242958617E+07, -3.277712903830810E+08, -1.650529535133497E+07,
2461498.500000000, A.D. 2027-Apr-03 00:00:00.0000, -4.738642220535179E+07, -3.276432379436796E+08, -1.631890132852350E+07,
2461505.500000000, A.D. 2027-Apr-10 00:00:00.0000, -3.468608004211500E+07, -3.270784304880180E+08, -1.611075423115218E+07,
2461512.500000000, A.D. 2027-Apr-17 00:00:00.0000, -2.193861889220681E+07, -3.260690411152179E+08, -1.588070879639693E+07,
2461519.500000000, A.D. 2027-Apr-24 00:00:00.0000, -9.160787204358993E+06, -3.246077977133245E+08, -1.562865659639913E+07,
2461526.500000000, A.D. 2027-May-01 00:00:00.0000, 3.629950208520902E+06, -3.226880479179511E+08, -1.535452906877117E+07,
2461533.500000000, A.D. 2027-May-08 00:00:00.0000, 1.641542763230585E+07, -3.203038257109445E+08, -1.505830058727138E+07,
2461540.500000000, A.D. 2027-May-15 00:00:00.0000, 2.917679927567116E+07, -3.174499182557139E+08, -1.473999132784590E+07,
2461547.500000000, A.D. 2027-May-22 00:00:00.0000, 4.189456439923619E+07, -3.141219350164908E+08, -1.439966996500926E+07,
2461554.500000000, A.D. 2027-May-29 00:00:00.0000, 5.454860057987059E+07, -3.103163799923639E+08, -1.403745658940271E+07,
2461561.500000000, A.D. 2027-Jun-05 00:00:00.0000, 6.711820641624576E+07, -3.060307232057897E+08, -1.365352563110122E+07,
2461568.500000000, A.D. 2027-Jun-12 00:00:00.0000, 7.958215201740913E+07, -3.012634701910248E+08, -1.324810852492671E+07,
2461575.500000000, A.D. 2027-Jun-19 00:00:00.0000, 9.191873720332853E+07, -2.960142295033734E+08, -1.282149611638029E+07,
2461582.500000000, A.D. 2027-Jun-26 00:00:00.0000, 1.041058578482664E+08, -2.902837775145884E+08, -1.237404080531316E+07,
2461589.500000000, A.D. 2027-Jul-03 00:00:00.0000, 1.161210805215717E+08, -2.840741194200218E+08, -1.190615838721836E+07,
2461596.500000000, A.D. 2027-Jul-10 00:00:00.0000, 1.279417253372222E+08, -2.773885453260580E+08, -1.141832954259185E+07,
2461603.500000000, A.D. 2027-Jul-17 00:00:00.0000, 1.395449567609439E+08, -2.702316802956476E+08, -1.091110092925344E+07,
2461610.500000000, A.D. 2027-Jul-24 00:00:00.0000, 1.509078820715671E+08, -2.626095272426668E+08, -1.038508584717579E+07,
2461617.500000000, A.D. 2027-Jul-31 00:00:00.0000, 1.620076572457249E+08, -2.545295012877519E+08, -9.840964447208941E+06,
2461624.500000000, A.D. 2027-Aug-07 00:00:00.0000, 1.728215992343301E+08, -2.460004533213322E+08, -9.279483329033464E+06,
2461631.500000000, A.D. 2027-Aug-14 00:00:00.0000, 1.833273013129314E+08, -2.370326820048434E+08, -8.701454303423569E+06,
2461638.500000000, A.D. 2027-Aug-21 00:00:00.0000, 1.935027509306230E+08, -2.276379366679917E+08, -8.107752625394434E+06,
2461645.500000000, A.D. 2027-Aug-28 00:00:00.0000, 2.033264521340742E+08, -2.178294091502555E+08, -7.499314899854675E+06,
2461652.500000000, A.D. 2027-Sep-04 00:00:00.0000, 2.127775498871958E+08, -2.076217115287740E+08, -6.877136342856765E+06,
2461659.500000000, A.D. 2027-Sep-11 00:00:00.0000, 2.218359532730135E+08, -1.970308400531360E+08, -6.242267331742212E+06,
2461666.500000000, A.D. 2027-Sep-18 00:00:00.0000, 2.304824560095242E+08, -1.860741258305780E+08, -5.595809328775570E+06,
2461673.500000000, A.D. 2027-Sep-25 00:00:00.0000, 2.386988527671325E+08, -1.747701724848139E+08, -4.938910237269327E+06,
2461680.500000000, A.D. 2027-Oct-02 00:00:00.0000, 2.464680496277050E+08, -1.631387811704932E+08, -4.272759238915347E+06,
2461687.500000000, A.D. 2027-Oct-09 00:00:00.0000, 2.537741670254795E+08, -1.512008636243285E+08, -3.598581170837104E+06,
2461694.500000000, A.D. 2027-Oct-16 00:00:00.0000, 2.606026336479492E+08, -1.389783442426928E+08, -2.917630520073965E+06,
2461701.500000000, A.D. 2027-Oct-23 00:00:00.0000, 2.669402701143256E+08, -1.264940523627876E+08, -2.231185137247726E+06,
2461708.500000000, A.D. 2027-Oct-30 00:00:00.0000, 2.727753615586193E+08, -1.137716055200822E+08, -1.540539738287069E+06,
2461715.500000000, A.D. 2027-Nov-06 00:00:00.0000, 2.780977169394403E+08, -1.008352841263676E+08, -8.469990838763192E+05,
2461722.500000000, A.D. 2027-Nov-13 00:00:00.0000, 2.828987123216190E+08, -8.770990136236829E+07, -1.518709165221117E+05,
2461729.500000000, A.D. 2027-Nov-20 00:00:00.0000, 2.871713205230838E+08, -7.442067227243480E+07, 5.435408060021028E+05,
2461736.500000000, A.D. 2027-Nov-27 00:00:00.0000, 2.909101285226462E+08, -6.099308093677239E+07, 1.237942383268584E+06,
2461743.500000000, A.D. 2027-Dec-04 00:00:00.0000, 2.941113406732658E+08, -4.745274664501422E+07, 1.930056724816507E+06,
2461750.500000000, A.D. 2027-Dec-11 00:00:00.0000, 2.967727675125186E+08, -3.382529182213176E+07, 2.618629474896476E+06,
2461757.500000000, A.D. 2027-Dec-18 00:00:00.0000, 2.988938010403658E+08, -2.013621373651784E+07, 3.302434785111200E+06,
2461764.500000000, A.D. 2027-Dec-25 00:00:00.0000, 3.004753774349732E+08, -6.410761547851383E+06, 3.980280658846398E+06,
2461771.500000000, A.D. 2028-Jan-01 00:00:00.0000, 3.015199282544011E+08, 7.326179935308835E+06, 4.651013812609293E+06,
$$EOE